XINZHENGCHENG-01        
1 68412U 26066A   26092.99755543  .00001283  00000+0  13573-3 0  9992
2 68412  84.8508 275.7933 0023441 189.3714 170.7075 14.88095472   543
LIJIAN-2 R/B            
1 68413U 26066B   26090.76704925  .02524605 -11587-5  21175-3 0  9990
2 68413  84.7161 277.0200 0605231 206.6432 150.2503 15.04815352   201
2026-066C               
1 68414U 26066C   26093.26650541  .00002203  00000+0  23263-3 0  9997
2 68414  84.9610 275.4168 0027133 151.2579 209.0147 14.88482509   587
SL-4 R/B                
1 68537U 26061S   26093.04230814  .00277827  27263-4  83776-3 0  9997
2 68537  82.3046  97.0017 0025559  32.1285 328.1539 15.91543707  1649
2026-069B               
1 68539U 26069B   26092.55069444 -.00190496  11727-5 -71298-2 0  9993
2 68539  28.3448 359.8421 8430033  77.7942 194.3023  1.02407762    02
2026-069C               
1 68540U 26069C   26092.51428241 -.00074286  00000+0 -17117+1 0  9997
2 68540  28.3256 359.7521 8353883  77.6495 183.0402  1.01813090    00
2026-069D               
1 68541U 26069D   26092.67815972 -.00078411  19505-5 -17218-4 0  9992
2 68541  28.3341 359.8703 8450105  77.6642 243.1767  1.02517944    33
